STARLINK-32092          
1 59700U 24086U   25324.38116495  .00002468  00000+0  99167-4 0  9999
2 59700  43.0082 317.3183 0002705 275.5693  84.4850 15.27585960 87391
STARLINK-32093          
1 59701U 24086V   25325.03245935 -.00001320  00000+0 -38451-4 0  9992
2 59701  43.0037 313.6055 0001157 264.5514  95.5206 15.27579859 87498
STARLINK-32087          
1 59702U 24086W   25325.02090203  .00000664  00000+0  33664-4 0  9997
2 59702  43.0022 313.5148 0000884 284.4467  75.6286 15.27577056 87493
STARLINK-32086          
1 59703U 24086X   25325.00291611  .00000633  00000+0  32511-4 0  9998
2 59703  43.0015 313.3824 0001117 279.3157  80.7568 15.27578825 87499
STARLINK-32098          
1 59704U 24086Y   25325.04274663  .00000713  00000+0  35429-4 0  9991
2 59704  43.0034 313.6799 0001721 271.8972  88.1682 15.27582633 87499
STARLINK-11107 [DTC]    
1 59708U 24088A   25324.54197503  .00004379  00000+0  40944-4 0  9998
2 59708  53.1596 144.0288 0000897  99.6638 260.4481 15.69730457 89113
STARLINK-11088 [DTC]    
1 59709U 24088B   25324.53227948  .00013351  00000+0  11478-3 0  9994
2 59709  53.1570 144.6876 0001352  83.6743 276.4429 15.69732642 89120
STARLINK-11092 [DTC]    
1 59710U 24088C   25324.52736932  .00001436  00000+0  16714-4 0  9993
2 59710  53.1623 144.6576 0001468 100.6336 259.4847 15.69708897 89124
STARLINK-11082 [DTC]    
1 59711U 24088D   25324.52246649  .00000294  00000+0  72873-5 0  9995
2 59711  53.1602 144.6224 0001069 110.9857 249.1275 15.69706129 89128
STARLINK-11108 [DTC]    
1 59712U 24088E   25324.89957617 -.00000680  00000+0 -75399-6 0  9998
2 59712  53.1568 142.7059 0001104  87.6494 272.4650 15.69707174 89185
STARLINK-11100 [DTC]    
1 59713U 24088F   25324.89467001  .00000124  00000+0  58790-5 0  9998
2 59713  53.1599 142.6736 0000934  74.1810 285.9311 15.69708355 89189
STARLINK-11094 [DTC]    
1 59714U 24088G   25323.80738917  .00003401  00000+0  32901-4 0  9992
2 59714  53.1582 147.9848 0000177 106.1866 253.9172 15.69713930 89017
STARLINK-11101 [DTC]    
1 59715U 24088H   25324.87994847 -.00003875  00000+0 -27115-4 0  9995
2 59715  53.1573 142.5749 0001303  84.4574 275.6593 15.69729878 89189
STARLINK-11099 [DTC]    
1 59716U 24088J   25323.92982571  .00000799  00000+0  11457-4 0  9994
2 59716  53.1571 147.3153 0001131  84.5901 275.5246 15.69700068 89032
STARLINK-11084 [DTC]    
1 59717U 24088K   25324.87504995  .00000044  00000+0  52241-5 0  9990
2 59717  53.1584 142.5407 0001172  85.8355 274.2797 15.69709691 89182
STARLINK-11103 [DTC]    
1 59718U 24088L   25324.23344809 -.00001528  00000+0 -77543-5 0  9999
2 59718  53.1612 145.6480 0000987  77.6964 282.4165 15.69716820 89089
