[{"OBJECT_NAME":"STARLINK-32092","OBJECT_ID":"2024-086U","EPOCH":"2025-11-20T09:08:52.651680","MEAN_MOTION":15.2758596,"ECCENTRICITY":0.00027058,"INCLINATION":43.0082,"RA_OF_ASC_NODE":317.3183,"ARG_OF_PERICENTER":275.5693,"MEAN_ANOMALY":84.485,"EPHEMERIS_TYPE":0,"CLASSIFICATION_TYPE":"U","NORAD_CAT_ID":59700,"ELEMENT_SET_NO":999,"REV_AT_EPOCH":8739,"BSTAR":9.9167008e-5,"MEAN_MOTION_DOT":2.468e-5,"MEAN_MOTION_DDOT":0},{"OBJECT_NAME":"STARLINK-32093","OBJECT_ID":"2024-086V","EPOCH":"2025-11-21T00:46:44.487840","MEAN_MOTION":15.27579859,"ECCENTRICITY":0.0001157,"INCLINATION":43.0037,"RA_OF_ASC_NODE":313.6055,"ARG_OF_PERICENTER":264.5514,"MEAN_ANOMALY":95.5206,"EPHEMERIS_TYPE":0,"CLASSIFICATION_TYPE":"U","NORAD_CAT_ID":59701,"ELEMENT_SET_NO":999,"REV_AT_EPOCH":8749,"BSTAR":-3.8451e-5,"MEAN_MOTION_DOT":-1.32e-5,"MEAN_MOTION_DDOT":0},{"OBJECT_NAME":"STARLINK-32087","OBJECT_ID":"2024-086W","EPOCH":"2025-11-21T00:30:05.935392","MEAN_MOTION":15.27577056,"ECCENTRICITY":8.84e-5,"INCLINATION":43.0022,"RA_OF_ASC_NODE":313.5148,"ARG_OF_PERICENTER":284.4467,"MEAN_ANOMALY":75.6286,"EPHEMERIS_TYPE":0,"CLASSIFICATION_TYPE":"U","NORAD_CAT_ID":59702,"ELEMENT_SET_NO":999,"REV_AT_EPOCH":8749,"BSTAR":3.3664e-5,"MEAN_MOTION_DOT":6.64e-6,"MEAN_MOTION_DDOT":0},{"OBJECT_NAME":"STARLINK-32086","OBJECT_ID":"2024-086X","EPOCH":"2025-11-21T00:04:11.951904","MEAN_MOTION":15.27578825,"ECCENTRICITY":0.0001117,"INCLINATION":43.0015,"RA_OF_ASC_NODE":313.3824,"ARG_OF_PERICENTER":279.3157,"MEAN_ANOMALY":80.7568,"EPHEMERIS_TYPE":0,"CLASSIFICATION_TYPE":"U","NORAD_CAT_ID":59703,"ELEMENT_SET_NO":999,"REV_AT_EPOCH":8749,"BSTAR":3.2511e-5,"MEAN_MOTION_DOT":6.33e-6,"MEAN_MOTION_DDOT":0},{"OBJECT_NAME":"STARLINK-32098","OBJECT_ID":"2024-086Y","EPOCH":"2025-11-21T01:01:33.308832","MEAN_MOTION":15.27582633,"ECCENTRICITY":0.0001721,"INCLINATION":43.0034,"RA_OF_ASC_NODE":313.6799,"ARG_OF_PERICENTER":271.8972,"MEAN_ANOMALY":88.1682,"EPHEMERIS_TYPE":0,"CLASSIFICATION_TYPE":"U","NORAD_CAT_ID":59704,"ELEMENT_SET_NO":999,"REV_AT_EPOCH":8749,"BSTAR":3.5429e-5,"MEAN_MOTION_DOT":7.13e-6,"MEAN_MOTION_DDOT":0},{"OBJECT_NAME":"STARLINK-11107 [DTC]","OBJECT_ID":"2024-088A","EPOCH":"2025-11-20T13:00:26.642592","MEAN_MOTION":15.69730457,"ECCENTRICITY":8.975e-5,"INCLINATION":53.1596,"RA_OF_ASC_NODE":144.0288,"ARG_OF_PERICENTER":99.6638,"MEAN_ANOMALY":260.4481,"EPHEMERIS_TYPE":0,"CLASSIFICATION_TYPE":"U","NORAD_CAT_ID":59708,"ELEMENT_SET_NO":999,"REV_AT_EPOCH":8911,"BSTAR":4.0943645e-5,"MEAN_MOTION_DOT":4.379e-5,"MEAN_MOTION_DDOT":0},{"OBJECT_NAME":"STARLINK-11088 [DTC]","OBJECT_ID":"2024-088B","EPOCH":"2025-11-20T12:46:28.947072","MEAN_MOTION":15.69732642,"ECCENTRICITY":0.00013527,"INCLINATION":53.157,"RA_OF_ASC_NODE":144.6876,"ARG_OF_PERICENTER":83.6743,"MEAN_ANOMALY":276.4429,"EPHEMERIS_TYPE":0,"CLASSIFICATION_TYPE":"U","NORAD_CAT_ID":59709,"ELEMENT_SET_NO":999,"REV_AT_EPOCH":8912,"BSTAR":0.00011477695,"MEAN_MOTION_DOT":0.00013351,"MEAN_MOTION_DDOT":0},{"OBJECT_NAME":"STARLINK-11092 [DTC]","OBJECT_ID":"2024-088C","EPOCH":"2025-11-20T12:39:24.709248","MEAN_MOTION":15.69708897,"ECCENTRICITY":0.00014686,"INCLINATION":53.1623,"RA_OF_ASC_NODE":144.6576,"ARG_OF_PERICENTER":100.6336,"MEAN_ANOMALY":259.4847,"EPHEMERIS_TYPE":0,"CLASSIFICATION_TYPE":"U","NORAD_CAT_ID":59710,"ELEMENT_SET_NO":999,"REV_AT_EPOCH":8912,"BSTAR":1.6713653e-5,"MEAN_MOTION_DOT":1.436e-5,"MEAN_MOTION_DDOT":0},{"OBJECT_NAME":"STARLINK-11082 [DTC]","OBJECT_ID":"2024-088D","EPOCH":"2025-11-20T12:32:21.104736","MEAN_MOTION":15.69706129,"ECCENTRICITY":0.00010695,"INCLINATION":53.1602,"RA_OF_ASC_NODE":144.6224,"ARG_OF_PERICENTER":110.9857,"MEAN_ANOMALY":249.1275,"EPHEMERIS_TYPE":0,"CLASSIFICATION_TYPE":"U","NORAD_CAT_ID":59711,"ELEMENT_SET_NO":999,"REV_AT_EPOCH":8912,"BSTAR":7.287252e-6,"MEAN_MOTION_DOT":2.94e-6,"MEAN_MOTION_DDOT":0},{"OBJECT_NAME":"STARLINK-11108 [DTC]","OBJECT_ID":"2024-088E","EPOCH":"2025-11-20T21:35:23.381088","MEAN_MOTION":15.69707174,"ECCENTRICITY":0.0001104,"INCLINATION":53.1568,"RA_OF_ASC_NODE":142.7059,"ARG_OF_PERICENTER":87.6494,"MEAN_ANOMALY":272.465,"EPHEMERIS_TYPE":0,"CLASSIFICATION_TYPE":"U","NORAD_CAT_ID":59712,"ELEMENT_SET_NO":999,"REV_AT_EPOCH":8918,"BSTAR":-7.5399e-7,"MEAN_MOTION_DOT":-6.8e-6,"MEAN_MOTION_DDOT":0},{"OBJECT_NAME":"STARLINK-11100 [DTC]","OBJECT_ID":"2024-088F","EPOCH":"2025-11-20T21:28:19.488864","MEAN_MOTION":15.69708355,"ECCENTRICITY":9.34e-5,"INCLINATION":53.1599,"RA_OF_ASC_NODE":142.6736,"ARG_OF_PERICENTER":74.181,"MEAN_ANOMALY":285.9311,"EPHEMERIS_TYPE":0,"CLASSIFICATION_TYPE":"U","NORAD_CAT_ID":59713,"ELEMENT_SET_NO":999,"REV_AT_EPOCH":8918,"BSTAR":5.879e-6,"MEAN_MOTION_DOT":1.24e-6,"MEAN_MOTION_DDOT":0},{"OBJECT_NAME":"STARLINK-11094 [DTC]","OBJECT_ID":"2024-088G","EPOCH":"2025-11-19T19:22:38.424288","MEAN_MOTION":15.6971393,"ECCENTRICITY":1.774e-5,"INCLINATION":53.1582,"RA_OF_ASC_NODE":147.9848,"ARG_OF_PERICENTER":106.1866,"MEAN_ANOMALY":253.9172,"EPHEMERIS_TYPE":0,"CLASSIFICATION_TYPE":"U","NORAD_CAT_ID":59714,"ELEMENT_SET_NO":999,"REV_AT_EPOCH":8901,"BSTAR":3.2900799e-5,"MEAN_MOTION_DOT":3.401e-5,"MEAN_MOTION_DDOT":0},{"OBJECT_NAME":"STARLINK-11101 [DTC]","OBJECT_ID":"2024-088H","EPOCH":"2025-11-20T21:07:07.547808","MEAN_MOTION":15.69729878,"ECCENTRICITY":0.0001303,"INCLINATION":53.1573,"RA_OF_ASC_NODE":142.5749,"ARG_OF_PERICENTER":84.4574,"MEAN_ANOMALY":275.6593,"EPHEMERIS_TYPE":0,"CLASSIFICATION_TYPE":"U","NORAD_CAT_ID":59715,"ELEMENT_SET_NO":999,"REV_AT_EPOCH":8918,"BSTAR":-2.7115e-5,"MEAN_MOTION_DOT":-3.875e-5,"MEAN_MOTION_DDOT":0},{"OBJECT_NAME":"STARLINK-11099 [DTC]","OBJECT_ID":"2024-088J","EPOCH":"2025-11-19T22:18:56.941344","MEAN_MOTION":15.69700068,"ECCENTRICITY":0.00011314,"INCLINATION":53.1571,"RA_OF_ASC_NODE":147.3153,"ARG_OF_PERICENTER":84.5901,"MEAN_ANOMALY":275.5246,"EPHEMERIS_TYPE":0,"CLASSIFICATION_TYPE":"U","NORAD_CAT_ID":59716,"ELEMENT_SET_NO":999,"REV_AT_EPOCH":8903,"BSTAR":1.1456734e-5,"MEAN_MOTION_DOT":7.99e-6,"MEAN_MOTION_DDOT":0},{"OBJECT_NAME":"STARLINK-11084 [DTC]","OBJECT_ID":"2024-088K","EPOCH":"2025-11-20T21:00:04.315680","MEAN_MOTION":15.69709691,"ECCENTRICITY":0.0001172,"INCLINATION":53.1584,"RA_OF_ASC_NODE":142.5407,"ARG_OF_PERICENTER":85.8355,"MEAN_ANOMALY":274.2797,"EPHEMERIS_TYPE":0,"CLASSIFICATION_TYPE":"U","NORAD_CAT_ID":59717,"ELEMENT_SET_NO":999,"REV_AT_EPOCH":8918,"BSTAR":5.2241e-6,"MEAN_MOTION_DOT":4.4e-7,"MEAN_MOTION_DDOT":0},{"OBJECT_NAME":"STARLINK-11103 [DTC]","OBJECT_ID":"2024-088L","EPOCH":"2025-11-20T05:36:09.914976","MEAN_MOTION":15.6971682,"ECCENTRICITY":9.87e-5,"INCLINATION":53.1612,"RA_OF_ASC_NODE":145.648,"ARG_OF_PERICENTER":77.6964,"MEAN_ANOMALY":282.4165,"EPHEMERIS_TYPE":0,"CLASSIFICATION_TYPE":"U","NORAD_CAT_ID":59718,"ELEMENT_SET_NO":999,"REV_AT_EPOCH":8908,"BSTAR":-7.7543e-6,"MEAN_MOTION_DOT":-1.528e-5,"MEAN_MOTION_DDOT":0}]
